{"type":"FeatureCollection","features":[{"type":"Feature","geometry":{"type":"LineString","coordinates":[[32.6105,35.1764],[32.7483,35.1486],[32.8943,35.1147],[33.0232,35.1528],[33.1973,35.1742],[33.3608,35.1744],[33.5284,35.0872],[33.7231,35.0298],[33.8821,35.0594],[33.9572,35.1097]]},"properties":{"label":"United Nations Buffer Zone Cyprus","Name":"United Nations Buffer Zone Cyprus","Date":2026,"Description":"Sight of physical borders on which conflict visualization similar to that occuring in Belfast can be found","Deep Dive":"Horizontal"}},
{"type":"Feature","geometry":{"type":"Point","coordinates":[-5.956874,54.600969]},"properties":{"label":"Clonard - County Antrim, Northern Ireland, United Kingdom","Name":"Bombay Street/Cupar Way Peace Wall","Date":"1970s (peak violence)","Description":"Sight of physical borders created to separate Catholic and Protestant communities in an effort to decrease physical violence.","Deep Dive":"Vertical and ties to horizontal connections through political solidarity"},"bbox":[-5.9751,54.595,-5.9485,54.6029]},
{"type":"Feature","geometry":{"type":"GeometryCollection","geometries":[{"type":"Point","coordinates":[-5.964274,54.591608]},{"type":"LineString","coordinates":[[-5.946527,54.599575],[-5.952741,54.597929],[-5.954856,54.595873],[-5.957286,54.593847],[-5.96415,54.591667],[-5.967031,54.591025],[-5.972427,54.586164],[-5.97799,54.584375],[-5.978049,54.584375]]}]},"properties":{"label":"Falls Road - Beechmount, Belfast, BT12 6AL, United Kingdom","Name":"Falls Road/ Bóthar na bhFál ","Date":2026,"Deep Dive":"Vertical","Description":"Majority Catholic Area"}},
{"type":"Feature","geometry":{"type":"GeometryCollection","geometries":[{"type":"Point","coordinates":[-5.950916,54.60417]},{"type":"LineString","coordinates":[[-5.93847,54.603325],[-5.956436,54.604537],[-5.959904,54.606119],[-5.960049,54.606161]]}]},"properties":{"label":"Shankill Road - Crumlin, Belfast, BT13 1FR, United Kingdom","Name":"Shankill Road","Date":2026,"Deep Dive":"Vertical","Description":"Majority Protestant Area. Major sight of visual memory and community identification with loyalist beliefs. "}},
{"type":"Feature","geometry":{"type":"Point","coordinates":[-5.957883,54.600385]},"properties":{"label":"Clonard Gardens - Clonard, Belfast, BT13 2RJ, United Kingdom","Name":"Clonard Gardens/Gairdíní Chluain Ard Neighborhoods","Description":"Starting point of violence of the troubles, currently sight of visual memory","Deep Dive":"Vertical","Date":"1970s (peak violence) to Now"}},
{"type":"Feature","geometry":{"type":"Point","coordinates":[-5.936659,54.593386]},"properties":{"label":"Sandy Row - Shaftesbury, Belfast, County Antrim, Northern Ireland, United Kingdom","Name":"Welcome to Sandy Row Mural","Date":2026,"Description":"Visual Signifier of Loyalist Community ","Deep Dive":"Vertical to community beliefs and horizontal to British government"},"bbox":[-5.9441,54.5884,-5.9318,54.5956]},{"type":"Feature","geometry":{"type":"Point","coordinates":[-5.952826,54.597933]},"properties":{"label":"Bobby Sands Mural - 49 Falls Rd, Belfast, BT12 4PD, United Kingdom","Name":"Bobby Sands Mural","Date":2026,"Description":"Visual memorial of prominent Irish Republican hunger striker. Shows narrative of importance of visual memory in upholding community divides.","Deep Dive":"Vertical"}},
{"type":"Feature","geometry":{"type":"Point","coordinates":[-5.940377,54.599809]},"properties":{"label":"Raidio Failte (Irish Speaking Radio)","Name":"Raidio Failte Building Murals","Description":"\"Gateway\" to the majority Catholic area of West Belfast from City Centre. Prominent sight of murals that connect community belifs to wider, international political narratives.","Deep Dive":"Horizontal "}},
{"type":"Feature","geometry":{"type":"Point","coordinates":[-5.961251,54.60167]},"properties":{"label":"Peace Gates Belfast - 97 Lanark Way, Belfast, BT13 3BJ, United Kingdom","Name":"Peace Gates","Deep Dive":"Vertical","Description":"Sight of highly muralised gates that still close at nigth, serving as a barrier between the Catholic and Protestan communities. The in between area is meant to serve as a compltely neutral buffer zone, with murals focusing on ideas of global peace and community healing. "}},
{"type":"Feature","geometry":{"type":"Point","coordinates":[-5.946858,54.600706]},"properties":{"label":"Falls Road International Wall","Name":"Solidarity Wall","Description":"Peace wall/line that shows solidarity for international social and political movements. Shows Catholic communities feeling of connection to people with struggles similar to them ","Deep Dive":"Horizontal","Date":"Present Day"}},
{"type":"Feature","geometry":{"type":"Point","coordinates":[-5.948237,54.603991]},"properties":{"label":"Bayadoro Pub Memorial ","Name":"Bayadoro Pub Memorial Garden","Description":"Collection of murals and images memorializing Protestant lives lost at the hands of the IRA throughout the Troubles and by \"Sinn Fein\" in more recent history","Deep Dive":"Vertical"}},
{"type":"Feature","geometry":{"type":"Point","coordinates":[-5.941174,54.60005]},"properties":{"label":"Fáilte Feirste Thiar mural","Name":"Fáilte Feirste Thiar/Welcome to West Belfast mural"}},{"type":"Feature","geometry":{"type":"Point","coordinates":[-5.942215,54.600079]},"properties":{"label":"Divis Tower","Name":"Divis Tower, formerly Divis flats"}},
{"type":"Feature","geometry":{"type":"Point","coordinates":[-5.956832,54.600981]},"properties":{"label":"Bombay Street/Cupar Way Peace Line Now","Name":"Bombay Street/Cupar Way Peace Line Now","Date":2026,"Description":"Significance of this peace line as a sight of visual memory and political tourism in 2026","Deep Dive":"vertical"}},{"type":"Feature","geometry":{"type":"Point","coordinates":[-7.3217,54.99708]},"properties":{"label":"Londonderry - Derry City and Strabane, Northern Ireland, United Kingdom","Name":"Derry/Londonderry","Date":"1970s (peak violence)","Description":"Second largest city in Northern Ireland where violence between Protestant and Catholic communities was also prevelant.","Deep Dive":"Horizontal"},"bbox":[-7.407477,54.798364,-6.757563,55.076432]},
{"type":"Feature","geometry":{"type":"Point","coordinates":[-7.326806,54.995768]},"properties":{"label":"Free Derry Corner - Lecky Rd, Londonderry, BT48 6LZ, United Kingdom","Name":"Free Derry Mural","Date":"Present Day","Description":"Sight of visual memory and community identification tied to similar ideas of West Belfast","Deep Dive":"Horizontal"}},
{"type":"Feature","geometry":{"type":"Polygon","coordinates":[[[-7.329771,54.999716],[-7.332312,54.997642],[-7.332726,54.995409],[-7.333112,54.994759],[-7.330158,54.993445],[-7.329937,54.992748],[-7.326872,54.995805],[-7.326541,54.996565],[-7.328225,54.997911],[-7.327949,54.998925],[-7.327949,54.998925],[-7.329771,54.999716]]]},"properties":{"label":"The Bogside, Derry/Londonderry","Name":"The Bogside, Derry/Londonderry","Date":"1970s (peak violence)","Description":"Sight of physical violence similar to that occuring in West Belfast during peak sectarian conflict","Deep Dive":"Horizontal"}},
{"type":"Feature","geometry":{"type":"Polygon","coordinates":[[[34.487488,31.595065],[34.436707,31.527304],[34.436707,31.527304],[34.369639,31.459493],[34.304486,31.398177],[34.221129,31.322088],[34.240292,31.294256],[34.246041,31.276242],[34.269994,31.22218],[34.297779,31.2443],[34.328439,31.257406],[34.340895,31.27788],[34.364848,31.290162],[34.371555,31.308992],[34.361015,31.36464],[34.371555,31.377729],[34.387843,31.394905],[34.413712,31.421073],[34.452995,31.45132],[34.478865,31.476655],[34.505692,31.496264],[34.546891,31.512602],[34.567012,31.541187],[34.487488,31.595065]]]},"properties":{"label":"Gaza Strip","Name":"Palestine","Date":"Present Day","Description":"Catholic/Irish Republican Solidarity with the oppression of Palestinian people as expressed through murals on the International Solidarity Wall and beyond","Deep Dive":"Horizontal"}},
{"type":"Feature","geometry":{"type":"Point","coordinates":[-0.124757,51.499381]},"properties":{"label":"Westminter Palace","Name":"Houses of Parliament","Date":"Present Day","Description":"Irish Republicans anti-Imperialism murals AND Loyalist pro-Union murals","Deep Dive":"Horizontal"}},{"type":"Feature","geometry":{"type":"Point","coordinates":[-0.12471,51.499384]},"properties":{"label":"Westminter Palace","Name":"House of Parliament (Peak Violence)","Date":"1970s (peak violence)","Description":"Where it was decided that barrier walls would be built in Belfast to curb physical acts of violence during sectarian conflict","Deep Dive":"Horizontal"}},
{"type":"Feature","geometry":{"type":"LineString","coordinates":[[-5.978893,54.627684],[-5.978824,54.627608],[-5.978698,54.627559],[-5.978527,54.627579],[-5.978434,54.627657],[-5.978314,54.627718],[-5.97821,54.627771],[-5.97799,54.627903],[-5.977798,54.628019],[-5.977742,54.628048],[-5.97747,54.628188],[-5.976848,54.628508],[-5.976172,54.628789],[-5.975634,54.629036]]},"properties":{"label":"Peacewall","Name":"Peacewall","Date":"Present Day","Description":"One of the peacewalls serving as a physcial reminder of sectarian division and violence that still stands in Belfast today. These walls and the meaning they hold in Belfast communities have shifted from necessary boundaries to offset physical violence towards spaces for visual expression trhough muralism and graffiti.","Deep Dive":"Vertical"}},{"type":"Feature","geometry":{"type":"LineString","coordinates":[[-5.926192,54.651456],[-5.926631,54.651262],[-5.926423,54.651081],[-5.926781,54.651091],[-5.92733,54.651059],[-5.927596,54.651033],[-5.927726,54.650329],[-5.928526,54.650339]]},"properties":{"label":"Peacewall","Name":"Peacewall","Description":"One of the peacewalls serving as a physcial reminder of sectarian division and violence that still stands in Belfast today. These walls and the meaning they hold in Belfast communities have shifted from necessary boundaries to offset physical violence towards spaces for visual expression trhough muralism and graffiti.","Date":"Present Day","Deep Dive":"Vertical"}},
{"type":"Feature","geometry":{"type":"MultiLineString","coordinates":[[[-5.933917,54.614533],[-5.933725,54.614745],[-5.933636,54.614853],[-5.933539,54.61497],[-5.933447,54.615144],[-5.933331,54.615345],[-5.933228,54.615585],[-5.933391,54.615649],[-5.933193,54.615826],[-5.932963,54.61602],[-5.932655,54.616274],[-5.932494,54.616455]],[[-5.932616,54.616594],[-5.932757,54.616658]]]},"properties":{"label":"Peacewall","Name":"Peacewall","Description":"One of the peacewalls serving as a physcial reminder of sectarian division and violence that still stands in Belfast today. These walls and the meaning they hold in Belfast communities have shifted from necessary boundaries to offset physical violence towards spaces for visual expression trhough muralism and graffiti.","Date":"Present Day","Deep Dive":"Verical"}},
{"type":"Feature","geometry":{"type":"LineString","coordinates":[[-5.969263,54.614167],[-5.968393,54.613511],[-5.967446,54.612792]]},"properties":{"label":"Peacewall","Name":"Peacewall","Description":"One of the peacewalls serving as a physcial reminder of sectarian division and violence that still stands in Belfast today. These walls and the meaning they hold in Belfast communities have shifted from necessary boundaries to offset physical violence towards spaces for visual expression trhough muralism and graffiti.","Date":"Present Day","Deep Dive":"Vertical"}},
{"type":"Feature","geometry":{"type":"MultiLineString","coordinates":[[[-5.929276,54.65475],[-5.928916,54.654479],[-5.928725,54.65451],[-5.9285,54.654531],[-5.92831,54.654542],[-5.928106,54.654542]],[[-5.929835,54.655216],[-5.929851,54.655191],[-5.929795,54.655145]]]},"properties":{"label":"Peacewall","Name":"Peacewall","Description":"One of the peacewalls serving as a physcial reminder of sectarian division and violence that still stands in Belfast today. These walls and the meaning they hold in Belfast communities have shifted from necessary boundaries to offset physical violence towards spaces for visual expression trhough muralism and graffiti.","Date":"Present Day","Deep Dive":"Vertical"}},
{"type":"Feature","geometry":{"type":"LineString","coordinates":[[-7.284747,54.974163],[-7.284414,54.973951],[-7.28417,54.973796],[-7.283928,54.973643],[-7.283671,54.97348],[-7.283409,54.973313]]},"properties":{"label":"Peacewall","Name":"Peacewall","Description":"One of the peacewalls serving as a physcial reminder of sectarian division and violence that still stands in Belfast today. These walls and the meaning they hold in Belfast communities have shifted from necessary boundaries to offset physical violence towards spaces for visual expression trhough muralism and graffiti.","Date":"Present Day","Deep Dive":"Horizontal"}},
{"type":"Feature","geometry":{"type":"LineString","coordinates":[[-7.307597,54.993653],[-7.307661,54.993602]]},"properties":{"label":"Peacewall","Name":"Peacewall","Description":"One of the peacewalls serving as a physcial reminder of sectarian division and violence that still stands in Belfast today. These walls and the meaning they hold in Belfast communities have shifted from necessary boundaries to offset physical violence towards spaces for visual expression trhough muralism and graffiti.","Date":"Present Day"}},
{"type":"Feature","geometry":{"type":"MultiLineString","coordinates":[[[-6.457055,54.427104],[-6.457107,54.427181],[-6.457196,54.42715],[-6.457232,54.427087],[-6.457171,54.426958],[-6.456984,54.426667],[-6.456698,54.426368],[-6.456471,54.426203],[-6.456354,54.42612],[-6.455824,54.425814],[-6.455019,54.425398],[-6.454449,54.425063],[-6.453943,54.424794],[-6.45333,54.424484],[-6.45277,54.424218],[-6.452095,54.423944]],[[-6.451932,54.423871],[-6.451534,54.423739],[-6.451411,54.423698],[-6.451171,54.423645],[-6.450356,54.423471],[-6.450201,54.423439],[-6.449962,54.423352],[-6.449931,54.423329],[-6.449812,54.423241],[-6.449792,54.423201],[-6.449628,54.422886],[-6.449447,54.422737],[-6.449038,54.422488],[-6.448542,54.422305],[-6.448311,54.422254],[-6.44807,54.422225],[-6.447941,54.422255],[-6.447811,54.422389],[-6.447688,54.422568],[-6.447624,54.422662],[-6.447551,54.422866],[-6.448828,54.423395],[-6.449543,54.422815]],[[-6.457474,54.426487],[-6.457228,54.426612],[-6.457509,54.427032],[-6.458365,54.42737],[-6.458669,54.427163],[-6.457474,54.426487]]]},"properties":{"label":"Peacewall","Name":"Peacewall","Description":"One of the peacewalls serving as a physcial reminder of sectarian division and violence that still stands in Belfast today. These walls and the meaning they hold in Belfast communities have shifted from necessary boundaries to offset physical violence towards spaces for visual expression trhough muralism and graffiti.","Date":"Present Day","Deep Dive":"Horizontal"}},
{"type":"Feature","geometry":{"type":"LineString","coordinates":[[-6.440684,54.43023],[-6.440707,54.430081],[-6.440748,54.429875],[-6.440771,54.42977],[-6.440753,54.429417],[-6.440733,54.428978],[-6.440727,54.428852],[-6.440721,54.428796],[-6.440641,54.428679],[-6.440602,54.428617],[-6.440536,54.428419],[-6.440387,54.427981],[-6.440207,54.427575],[-6.440164,54.427446]]},"properties":{"label":"Peacewall","Name":"Peacewall","Description":"One of the peacewalls serving as a physcial reminder of sectarian division and violence that still stands in Belfast today. These walls and the meaning they hold in Belfast communities have shifted from necessary boundaries to offset physical violence towards spaces for visual expression trhough muralism and graffiti.","Date":"Present Day","Deep Dive":"Horizontal"}},{"type":"Feature","geometry":{"type":"LineString","coordinates":[[-6.339532,54.453543],[-6.339561,54.453501]]},"properties":{"label":"Peacewall","Name":"Peacewall","Description":"One of the peacewalls serving as a physcial reminder of sectarian division and violence that still stands in Belfast today. These walls and the meaning they hold in Belfast communities have shifted from necessary boundaries to offset physical violence towards spaces for visual expression trhough muralism and graffiti.","Date":"Present Day"}},
{"type":"Feature","geometry":{"type":"MultiLineString","coordinates":[[[-5.950939,54.6165],[-5.95058,54.616303],[-5.949607,54.615499],[-5.949485,54.615436],[-5.948786,54.616127],[-5.9479,54.616983],[-5.946924,54.617937]],[[-5.948417,54.61771],[-5.947545,54.61733]]]},"properties":{"label":"Peacewall","Name":"Peacewall","Description":"One of the peacewalls serving as a physcial reminder of sectarian division and violence that still stands in Belfast today. These walls and the meaning they hold in Belfast communities have shifted from necessary boundaries to offset physical violence towards spaces for visual expression trhough muralism and graffiti.","Date":"Present Day","Deep Dive":"Vertical"}},{"type":"Feature","geometry":{"type":"MultiLineString","coordinates":[[[-5.942373,54.595274],[-5.942325,54.595158],[-5.942291,54.594882],[-5.942285,54.594613],[-5.942632,54.594075],[-5.943371,54.593003],[-5.944006,54.592424],[-5.944438,54.592216],[-5.945362,54.592339],[-5.946007,54.592294],[-5.946136,54.591869],[-5.94696,54.591875],[-5.948039,54.591918],[-5.948186,54.591945],[-5.948283,54.592119],[-5.948363,54.592219],[-5.948832,54.592584],[-5.949142,54.592749],[-5.949445,54.59305],[-5.949701,54.593436],[-5.949899,54.593722]],[[-5.953384,54.591035],[-5.952951,54.591213],[-5.95241,54.591425],[-5.951722,54.591611],[-5.951018,54.591697],[-5.950127,54.591707],[-5.948941,54.591687],[-5.948242,54.591675],[-5.947161,54.591656]]]},"properties":{"label":"Peacewall","Name":"Peacewall","Description":"One of the peacewalls serving as a physcial reminder of sectarian division and violence that still stands in Belfast today. These walls and the meaning they hold in Belfast communities have shifted from necessary boundaries to offset physical violence towards spaces for visual expression trhough muralism and graffiti.","Date":"Present Day","Deep Dive":"Vertical"}},
{"type":"Feature","geometry":{"type":"MultiLineString","coordinates":[[[-5.946763,54.611771],[-5.946733,54.612029],[-5.94673,54.612428],[-5.946611,54.612881],[-5.946607,54.613303],[-5.946366,54.613371],[-5.94607,54.613654],[-5.945574,54.61411],[-5.945334,54.614276],[-5.945112,54.61442],[-5.944758,54.614292],[-5.943973,54.613981],[-5.943109,54.613662]],[[-5.943109,54.613662],[-5.942968,54.613784],[-5.941034,54.613113],[-5.942107,54.612074],[-5.943338,54.612491],[-5.942553,54.613286],[-5.942457,54.613412],[-5.943109,54.613662]]]},"properties":{"label":"Peacewall","Name":"Peacewall","Description":"One of the peacewalls serving as a physcial reminder of sectarian division and violence that still stands in Belfast today. These walls and the meaning they hold in Belfast communities have shifted from necessary boundaries to offset physical violence towards spaces for visual expression trhough muralism and graffiti.","Date":"Present Day","Deep Dive":"Vertical"}},
{"type":"Feature","geometry":{"type":"MultiLineString","coordinates":[[[-5.962863,54.612915],[-5.962696,54.612715],[-5.962519,54.612454],[-5.962202,54.611754],[-5.962146,54.611465],[-5.962114,54.610823],[-5.961243,54.610808],[-5.960715,54.61157],[-5.960053,54.612428],[-5.95905,54.612147],[-5.958167,54.611905],[-5.956895,54.611648],[-5.956146,54.611493],[-5.955598,54.61138]],[[-5.9595,54.612428],[-5.960862,54.612848],[-5.962312,54.613307],[-5.962625,54.613411]]]},"properties":{"label":"Peacewall","Name":"Peacewall","Description":"One of the peacewalls serving as a physcial reminder of sectarian division and violence that still stands in Belfast today. These walls and the meaning they hold in Belfast communities have shifted from necessary boundaries to offset physical violence towards spaces for visual expression trhough muralism and graffiti.","Date":"Present Day","Deep Dive":"Vertical"}},{"type":"Feature","geometry":{"type":"LineString","coordinates":[[-5.962096,54.618259],[-5.965679,54.617592],[-5.962096,54.618259],[-5.960501,54.618567],[-5.959628,54.618907],[-5.958943,54.61872],[-5.958004,54.619103],[-5.957489,54.619452],[-5.956728,54.620101]]},"properties":{"label":"Peacewall","Name":"Peacewall","Description":"One of the peacewalls serving as a physcial reminder of sectarian division and violence that still stands in Belfast today. These walls and the meaning they hold in Belfast communities have shifted from necessary boundaries to offset physical violence towards spaces for visual expression trhough muralism and graffiti.","Date":"Present Day","Deep Dive":"Vertical"}},
{"type":"Feature","geometry":{"type":"MultiLineString","coordinates":[[[-5.982159,54.602027],[-5.979435,54.599996],[-5.980567,54.599574],[-5.97957,54.598612],[-5.978481,54.597515],[-5.97811,54.597443],[-5.977811,54.59741],[-5.977468,54.597384],[-5.977118,54.597378],[-5.97663,54.597379],[-5.976309,54.597408]],[[-5.97631,54.597409],[-5.976349,54.597511],[-5.976424,54.597589],[-5.977157,54.598219],[-5.977942,54.598885],[-5.978287,54.599192],[-5.978673,54.59955],[-5.979151,54.600033],[-5.979617,54.600373],[-5.980116,54.600764],[-5.980602,54.601241],[-5.981115,54.601714],[-5.98167,54.602229]],[[-5.981664,54.602216],[-5.982868,54.601768],[-5.984928,54.601053],[-5.985674,54.600806],[-5.986577,54.600665],[-5.988812,54.600379],[-5.988831,54.600359]]]},"properties":{"label":"Peacewall","Name":"Peacewall","Description":"One of the peacewalls serving as a physcial reminder of sectarian division and violence that still stands in Belfast today. These walls and the meaning they hold in Belfast communities have shifted from necessary boundaries to offset physical violence towards spaces for visual expression trhough muralism and graffiti.","Date":"Present Day","Deep Dive":"Vertical"}},
{"type":"Feature","geometry":{"type":"MultiLineString","coordinates":[[[-5.904297,54.595338],[-5.904157,54.595186]],[[-5.905119,54.595285],[-5.90648,54.595492]],[[-5.911019,54.59839],[-5.911065,54.598487],[-5.911044,54.598634],[-5.910777,54.599131],[-5.910673,54.599432],[-5.910414,54.599767],[-5.910229,54.599904],[-5.909908,54.599972],[-5.909448,54.600023],[-5.909012,54.600104],[-5.908577,54.600156],[-5.90797,54.600086],[-5.906859,54.599942],[-5.905761,54.599797],[-5.90508,54.599689]],[[-5.904891,54.599649],[-5.904625,54.599128],[-5.904067,54.598115],[-5.903752,54.597578],[-5.903507,54.597153],[-5.903321,54.59681],[-5.903251,54.596698],[-5.903193,54.596572],[-5.902761,54.596587],[-5.902687,54.596526],[-5.902553,54.59617],[-5.902382,54.595719],[-5.902853,54.595658],[-5.903256,54.595588],[-5.90374,54.595476],[-5.904307,54.595337]],[[-5.902803,54.595665],[-5.902716,54.595472],[-5.902672,54.595353],[-5.902425,54.595381],[-5.902395,54.595309]],[[-5.911211,54.598239],[-5.911313,54.597965],[-5.911294,54.597638],[-5.91122,54.597371]]]},"properties":{"label":"Peacewall","Name":"Peacewall","Description":"One of the peacewalls serving as a physcial reminder of sectarian division and violence that still stands in Belfast today. These walls and the meaning they hold in Belfast communities have shifted from necessary boundaries to offset physical violence towards spaces for visual expression trhough muralism and graffiti.","Date":"Present Day","Deep Dive":"Vertical"}},{"type":"Feature","geometry":{"type":"LineString","coordinates":[[-5.932006,54.616709],[-5.93166,54.616997],[-5.931217,54.61738],[-5.932238,54.617781],[-5.932453,54.617857],[-5.932184,54.618476],[-5.932413,54.619138],[-5.932622,54.619808]]},"properties":{"label":"Peacewall","Name":"Peacewall","Description":"One of the peacewalls serving as a physcial reminder of sectarian division and violence that still stands in Belfast today. These walls and the meaning they hold in Belfast communities have shifted from necessary boundaries to offset physical violence towards spaces for visual expression trhough muralism and graffiti.","Date":"Present Day","Deep Dive":"Vertical"}},{"type":"Feature","geometry":{"type":"MultiLineString","coordinates":[[[-5.93581,54.614889],[-5.933929,54.614129],[-5.932006,54.613425],[-5.929795,54.61262],[-5.928074,54.611963],[-5.926085,54.61115],[-5.926496,54.610642],[-5.927627,54.609524]],[[-5.925442,54.61196],[-5.925656,54.611214],[-5.924374,54.610612]],[[-5.931293,54.613412],[-5.931115,54.613342]],[[-5.928868,54.612475],[-5.92871,54.612424]]]},"properties":{"label":"Peacewall","Name":"Peacewall","Description":"One of the peacewalls serving as a physcial reminder of sectarian division and violence that still stands in Belfast today. These walls and the meaning they hold in Belfast communities have shifted from necessary boundaries to offset physical violence towards spaces for visual expression trhough muralism and graffiti.","Date":"Present Day","Deep Dive":"Vertical"}},{"type":"Feature","geometry":{"type":"MultiLineString","coordinates":[[[-5.966369,54.602689],[-5.965893,54.603086],[-5.965559,54.603133],[-5.965507,54.602858],[-5.965388,54.602479],[-5.964667,54.602391],[-5.96359,54.602147],[-5.962766,54.601914],[-5.962012,54.60162],[-5.961438,54.601383],[-5.96108,54.601661],[-5.960619,54.601471],[-5.959121,54.600968],[-5.960619,54.601471],[-5.96108,54.601661],[-5.961438,54.601383]],[[-5.940206,54.601121],[-5.940608,54.601032],[-5.941511,54.601084],[-5.943082,54.601208],[-5.94394,54.601256],[-5.944603,54.601301],[-5.945054,54.601339],[-5.945627,54.601379],[-5.945927,54.601382],[-5.946064,54.601288],[-5.946126,54.600707],[-5.947563,54.600673],[-5.948659,54.600274],[-5.948511,54.600089],[-5.948696,54.600029],[-5.948852,54.600215],[-5.948972,54.600243],[-5.94994,54.600354],[-5.950709,54.600424],[-5.951731,54.600456],[-5.952245,54.6004],[-5.953095,54.600363],[-5.953692,54.600395],[-5.954495,54.600554],[-5.956007,54.601007],[-5.957481,54.601523],[-5.959121,54.600968]],[[-5.938569,54.601536],[-5.938133,54.601485]]]},"properties":{"label":"Peacewall","Name":"Peacewall","Description":"One of the peacewalls serving as a physcial reminder of sectarian division and violence that still stands in Belfast today. These walls and the meaning they hold in Belfast communities have shifted from necessary boundaries to offset physical violence towards spaces for visual expression trhough muralism and graffiti.","Date":"Present Day"}},{"type":"Feature","geometry":{"type":"MultiLineString","coordinates":[[[-7.323801,54.993595],[-7.323936,54.993478],[-7.324013,54.993412],[-7.32405,54.993372],[-7.324133,54.993278],[-7.324334,54.993049],[-7.324539,54.992837],[-7.32468,54.992691],[-7.324932,54.992471],[-7.32464,54.992322],[-7.324507,54.992248],[-7.324013,54.991954],[-7.323685,54.991745],[-7.323324,54.991902],[-7.322971,54.992112],[-7.322646,54.992305]],[[-7.32403,54.993747],[-7.324058,54.993705]],[[-7.323768,54.993672],[-7.323795,54.993629]],[[-7.320596,54.993981],[-7.320523,54.993907]],[[-7.320793,54.993916],[-7.320733,54.993854]]]},"properties":{"label":"Peacewall","Name":"Peacewall","Description":"One of the peacewalls serving as a physcial reminder of sectarian division and violence that still stands in Belfast today. These walls and the meaning they hold in Belfast communities have shifted from necessary boundaries to offset physical violence towards spaces for visual expression trhough muralism and graffiti.","Date":"Present Day","Deep Dive":"Horizontal"}},
{"type":"Feature","geometry":{"type":"MultiLineString","coordinates":[[[-5.9257,54.607423],[-5.926352,54.607398],[-5.927002,54.607387],[-5.927339,54.607393],[-5.927834,54.607437],[-5.92832,54.607503],[-5.928752,54.607586],[-5.929025,54.607626],[-5.929201,54.607634]],[[-5.924865,54.607764],[-5.924985,54.607625]]]},"properties":{"Name":"Peacewall","label":"Peacewall","Date":"Present Day","Deep Dive":"Vertical"}},{"type":"Feature","geometry":{"type":"Point","coordinates":[13.439664,52.505192]},"properties":{"label":"East Side Gallery Berlin","Name":"East Side Gallery Berlin","Date":2026,"Description":"Museum in which pieces of the Berlin Wall and conflict visulization narratives on pieces of this wall are housed. The wall has now been taken down and so the physical barrier between East and West Berlin no longer exists, but cultural violence and conflict still persists in ways similar to the post-conflict state of Belfast. ","Deep Dive":"Horizontal"}}]}